[
    {
        "Altitude(m)": 702828.2979784403,
        "Argument of Periapsis(deg)": 0.006834072711976239,
        "Eccentricity": 0.0,
        "Inclination(deg)": 45.0,
        "Latitude(deg)": 6.6366142633741525,
        "Longitude(deg)": 172.90249480160696,
        "Mean Anomaly(deg)": 170.5563299884885,
        "RAAN(deg)": 99.99354883512507,
        "Satellite Name": "Constellation 1 450",
        "Satellite Number": 450,
        "Semi-Major Axis(m)": 7083131.272910544,
        "Time(s)": 114
    },
    {
        "Altitude(m)": 702830.7187988985,
        "Argument of Periapsis(deg)": 0.006894020718221645,
        "Eccentricity": 0.0,
        "Inclination(deg)": 45.0,
        "Latitude(deg)": 6.593683674295412,
        "Longitude(deg)": 172.94182491206507,
        "Mean Anomaly(deg)": 170.61703112873838,
        "RAAN(deg)": 99.99349224595952,
        "Satellite Name": "Constellation 1 450",
        "Satellite Number": 450,
        "Semi-Major Axis(m)": 7083131.272910544,
        "Time(s)": 115
    },
    {
        "Altitude(m)": 702833.1601484508,
        "Argument of Periapsis(deg)": 0.006953968724467052,
        "Eccentricity": 0.0,
        "Inclination(deg)": 45.0,
        "Latitude(deg)": 6.55074928323511,
        "Longitude(deg)": 172.9811475011633,
        "Mean Anomaly(deg)": 170.6777322689883,
        "RAAN(deg)": 99.99343565679393,
        "Satellite Name": "Constellation 1 450",
        "Satellite Number": 450,
        "Semi-Major Axis(m)": 7083131.272910544,
        "Time(s)": 116
    },
    {
        "Altitude(m)": 702835.622034807,
        "Argument of Periapsis(deg)": 0.007013916730712457,
        "Eccentricity": 0.0,
        "Inclination(deg)": 45.0,
        "Latitude(deg)": 6.507811116240645,
        "Longitude(deg)": 173.02046261849677,
        "Mean Anomaly(deg)": 170.7384334092382,
        "RAAN(deg)": 99.99337906762837,
        "Satellite Name": "Constellation 1 450",
        "Satellite Number": 450,
        "Semi-Major Axis(m)": 7083131.272910544,
        "Time(s)": 117
    },
    {
        "Altitude(m)": 702838.104465598,
        "Argument of Periapsis(deg)": 0.007073864736957864,
        "Eccentricity": 0.0,
        "Inclination(deg)": 45.0,
        "Latitude(deg)": 6.464869199345065,
        "Longitude(deg)": 173.05977031364426,
        "Mean Anomaly(deg)": 170.7991345494881,
        "RAAN(deg)": 99.99332247846279,
        "Satellite Name": "Constellation 1 450",
        "Satellite Number": 450,
        "Semi-Major Axis(m)": 7083131.272910544,
        "Time(s)": 118
    },
    {
        "Altitude(m)": 702840.6074483478,
        "Argument of Periapsis(deg)": 0.0071338127432032696,
        "Eccentricity": 0.0,
        "Inclination(deg)": 45.0,
        "Latitude(deg)": 6.42192355856733,
        "Longitude(deg)": 173.09907046807135,
        "Mean Anomaly(deg)": 170.85983568973805,
        "RAAN(deg)": 99.99326588929723,
        "Satellite Name": "Constellation 1 450",
        "Satellite Number": 450,
        "Semi-Major Axis(m)": 7083131.272910544,
        "Time(s)": 119
    },
    {
        "Altitude(m)": 702843.1309905021,
        "Argument of Periapsis(deg)": 0.007193760749448674,
        "Eccentricity": 0.0,
        "Inclination(deg)": 45.0,
        "Latitude(deg)": 6.3789742199116635,
        "Longitude(deg)": 173.13836346751825,
        "Mean Anomaly(deg)": 170.92053682998787,
        "RAAN(deg)": 99.99320930013167,
        "Satellite Name": "Constellation 1 450",
        "Satellite Number": 450,
        "Semi-Major Axis(m)": 7083131.272910544,
        "Time(s)": 120
    },
    {
        "Altitude(m)": 702845.6750994127,
        "Argument of Periapsis(deg)": 0.007253708755694079,
        "Eccentricity": 0.0,
        "Inclination(deg)": 45.0,
        "Latitude(deg)": 6.3360212093686625,
        "Longitude(deg)": 173.1776491934187,
        "Mean Anomaly(deg)": 170.98123797023783,
        "RAAN(deg)": 99.99315271096609,
        "Satellite Name": "Constellation 1 450",
        "Satellite Number": 450,
        "Semi-Major Axis(m)": 7083131.272910544,
        "Time(s)": 121
    },
    {
        "Altitude(m)": 702848.2397823399,
        "Argument of Periapsis(deg)": 0.0073136567619394854,
        "Eccentricity": 0.0,
        "Inclination(deg)": 45.0,
        "Latitude(deg)": 6.293064552915258,
        "Longitude(deg)": 173.21692769528678,
        "Mean Anomaly(deg)": 171.0419391104877,
        "RAAN(deg)": 99.99309612180052,
        "Satellite Name": "Constellation 1 450",
        "Satellite Number": 450,
        "Semi-Major Axis(m)": 7083131.272910544,
        "Time(s)": 122
    },
    {
        "Altitude(m)": 702850.8250464562,
        "Argument of Periapsis(deg)": 0.0073736047681848904,
        "Eccentricity": 0.0,
        "Inclination(deg)": 45.0,
        "Latitude(deg)": 6.2501042765139125,
        "Longitude(deg)": 173.25619902262144,
        "Mean Anomaly(deg)": 171.10264025073764,
        "RAAN(deg)": 99.99303953263497,
        "Satellite Name": "Constellation 1 450",
        "Satellite Number": 450,
        "Semi-Major Axis(m)": 7083131.272910544,
        "Time(s)": 123
    },
    {
        "Altitude(m)": 702853.4308988461,
        "Argument of Periapsis(deg)": 0.007433552774430298,
        "Eccentricity": 0.0,
        "Inclination(deg)": 45.0,
        "Latitude(deg)": 6.207140406113911,
        "Longitude(deg)": 173.2954632249052,
        "Mean Anomaly(deg)": 171.16334139098745,
        "RAAN(deg)": 99.99298294346939,
        "Satellite Name": "Constellation 1 450",
        "Satellite Number": 450,
        "Semi-Major Axis(m)": 7083131.272910544,
        "Time(s)": 124
    },
    {
        "Altitude(m)": 702856.0573464963,
        "Argument of Periapsis(deg)": 0.007493500780675703,
        "Eccentricity": 0.0,
        "Inclination(deg)": 45.0,
        "Latitude(deg)": 6.164172967650251,
        "Longitude(deg)": 173.33472035160554,
        "Mean Anomaly(deg)": 171.2240425312374,
        "RAAN(deg)": 99.99292635430382,
        "Satellite Name": "Constellation 1 450",
        "Satellite Number": 450,
        "Semi-Major Axis(m)": 7083131.272910544,
        "Time(s)": 125
    },
    {
        "Altitude(m)": 702858.7043963083,
        "Argument of Periapsis(deg)": 0.007553448786921108,
        "Eccentricity": 0.0,
        "Inclination(deg)": 45.0,
        "Latitude(deg)": 6.121201987045172,
        "Longitude(deg)": 173.373970284077,
        "Mean Anomaly(deg)": 171.28474367148726,
        "RAAN(deg)": 99.99286976513824,
        "Satellite Name": "Constellation 1 450",
        "Satellite Number": 450,
        "Semi-Major Axis(m)": 7083131.272910544,
        "Time(s)": 126
    },
    {
        "Altitude(m)": 702861.372055096,
        "Argument of Periapsis(deg)": 0.007613396793166514,
        "Eccentricity": 0.0,
        "Inclination(deg)": 45.0,
        "Latitude(deg)": 6.0782274902061575,
        "Longitude(deg)": 173.41321340795002,
        "Mean Anomaly(deg)": 171.3454448117372,
        "RAAN(deg)": 99.99281317597267,
        "Satellite Name": "Constellation 1 450",
        "Satellite Number": 450,
        "Semi-Major Axis(m)": 7083131.272910544,
        "Time(s)": 127
    },
    {
        "Altitude(m)": 702864.0603295673,
        "Argument of Periapsis(deg)": 0.007673344799411918,
        "Eccentricity": 0.0,
        "Inclination(deg)": 45.0,
        "Latitude(deg)": 6.035249503028517,
        "Longitude(deg)": 173.4524496045483,
        "Mean Anomaly(deg)": 171.4061459519871,
        "RAAN(deg)": 99.99275658680709,
        "Satellite Name": "Constellation 1 450",
        "Satellite Number": 450,
        "Semi-Major Axis(m)": 7083131.272910544,
        "Time(s)": 128
    },
    {
        "Altitude(m)": 702866.7692263648,
        "Argument of Periapsis(deg)": 0.007733292805657325,
        "Eccentricity": 0.0,
        "Inclination(deg)": 45.0,
        "Latitude(deg)": 5.9922680513937845,
        "Longitude(deg)": 173.49167892327753,
        "Mean Anomaly(deg)": 171.466847092237,
        "RAAN(deg)": 99.99269999764154,
        "Satellite Name": "Constellation 1 450",
        "Satellite Number": 450,
        "Semi-Major Axis(m)": 7083131.272910544,
        "Time(s)": 129
    },
    {
        "Altitude(m)": 702869.4987520175,
        "Argument of Periapsis(deg)": 0.00779324081190273,
        "Eccentricity": 0.0,
        "Inclination(deg)": 45.0,
        "Latitude(deg)": 5.949283161170259,
        "Longitude(deg)": 173.53090141352837,
        "Mean Anomaly(deg)": 171.5275482324869,
        "RAAN(deg)": 99.99264340847597,
        "Satellite Name": "Constellation 1 450",
        "Satellite Number": 450,
        "Semi-Major Axis(m)": 7083131.272910544,
        "Time(s)": 130
    },
    {
        "Altitude(m)": 702872.2489129818,
        "Argument of Periapsis(deg)": 0.007853188818148135,
        "Eccentricity": 0.0,
        "Inclination(deg)": 45.0,
        "Latitude(deg)": 5.906294858213272,
        "Longitude(deg)": 173.5701171246761,
        "Mean Anomaly(deg)": 171.58824937273675,
        "RAAN(deg)": 99.99258681931039,
        "Satellite Name": "Constellation 1 450",
        "Satellite Number": 450,
        "Semi-Major Axis(m)": 7083131.272910544,
        "Time(s)": 131
    },
    {
        "Altitude(m)": 702875.0197156074,
        "Argument of Periapsis(deg)": 0.007913136824393542,
        "Eccentricity": 0.0,
        "Inclination(deg)": 45.0,
        "Latitude(deg)": 5.863303168364944,
        "Longitude(deg)": 173.6093261060814,
        "Mean Anomaly(deg)": 171.64895051298674,
        "RAAN(deg)": 99.99253023014482,
        "Satellite Name": "Constellation 1 450",
        "Satellite Number": 450,
        "Semi-Major Axis(m)": 7083131.272910544,
        "Time(s)": 132
    }
]